1 45148U 20008T   23093.46467659  .00000109  00000-0  15300-3 0  9998
2 45148  87.9304 246.9238 0017174 353.0704   7.0205 13.48388738160274
1 45148U 20008T   23093.68729521  .00000109  00000-0  15358-3 0  9994
2 45148  87.9304 246.8775 0017153 352.4107   7.6780 13.48388784160305
1 45148U 20008T   23094.13253241  .00000115  00000-0  16336-3 0  9990
2 45148  87.9305 246.7849 0017108 351.1347   8.9497 13.48388947161175
1 45148U 20008T   23094.50356341  .00000109  00000-0  15413-3 0  9994
2 45148  87.9306 246.7078 0017073 350.0495  10.0314 13.48389019160412
1 45148U 20008T   23094.87459443  .00000105  00000-0  14617-3 0  9992
2 45148  87.9307 246.6306 0017037 348.9547  11.1225 13.48389069160463
1 45148U 20008T   23095.46824404  .00000096  00000-0  13194-3 0  9999
2 45148  87.9309 246.5072 0016981 347.2135  12.8581 13.48389136161353
1 45148U 20008T   23095.83927503  .00000094  00000-0  12913-3 0  9990
2 45148  87.9309 246.4301 0016944 346.0959  13.9721 13.48389189160598
1 45148U 20008T   23096.43292454  .00000090  00000-0  12217-3 0  9990
2 45148  87.9310 246.3066 0016891 344.3151  15.7472 13.48389299160677
1 45148U 20008T   23096.95236788  .00000087  00000-0  11794-3 0  9990
2 45148  87.9310 246.1986 0016844 342.7609  17.2966 13.48389375161552
1 45148U 20008T   23097.47181120  .00000087  00000-0  11851-3 0  9991
2 45148  87.9311 246.0907 0016795 341.2131  18.8396 13.48389458160818
1 45148U 20008T   23098.13966690  .00000090  00000-0  12276-3 0  9994
2 45148  87.9313 245.9518 0016732 339.2242  20.8225 13.48389558161712
1 45148U 20008T   23098.43649164  .00000089  00000-0  12123-3 0  9990
2 45148  87.9313 245.8901 0016707 338.3369  21.7071 13.48389613160944
1 45148U 20008T   23099.40117201  .00000092  00000-0  12603-3 0  9997
2 45148  87.9315 245.6896 0016624 335.4465  24.5891 13.48389774161883
1 45148U 20008T   23099.47537816  .00000094  00000-0  12871-3 0  9991
2 45148  87.9316 245.6742 0016617 335.2144  24.8206 13.48389795161086
1 45148U 20008T   23099.69799668  .00000098  00000-0  13538-3 0  9995
2 45148  87.9316 245.6280 0016600 334.5282  25.5047 13.48389838161113
1 45148U 20008T   23100.36585229  .00000107  00000-0  15080-3 0  9993
2 45148  87.9318 245.4892 0016545 332.4923  27.5348 13.48389980161203
1 45148U 20008T   23100.66267695  .00000110  00000-0  15526-3 0  9999
2 45148  87.9318 245.4275 0016521 331.5824  28.4423 13.48390039161247
1 45148U 20008T   23100.66267695  .00000110  00000-0  15526-3 0  9999
2 45148  87.9318 245.4275 0016521 331.5824  28.4423 13.48390039162057
1 45148U 20008T   23101.47894480  .00000114  00000-0  16151-3 0  9996
2 45148  87.9320 245.2579 0016450 329.1016  30.9164 13.48390213161358
1 45148U 20008T   23102.14680034  .00000108  00000-0  15228-3 0  9996
2 45148  87.9322 245.1191 0016397 327.0730  32.9396 13.48390262162252
1 45148U 20008T   23102.44362504  .00000102  00000-0  14231-3 0  9995
2 45148  87.9323 245.0574 0016374 326.1686  33.8417 13.48390277161486
1 45148U 20008T   23103.40830509  .00000108  00000-0  15241-3 0  9995
2 45148  87.9325 244.8570 0016301 323.1967  36.8062 13.48390495161616
1 45148U 20008T   23103.63092354  .00000108  00000-0  15120-3 0  9994
2 45148  87.9326 244.8107 0016287 322.5038  37.4974 13.48390524162453
1 45148U 20008T   23104.44719114  .00000108  00000-0  15189-3 0  9999
2 45148  87.9327 244.6411 0016228 319.9689  40.0262 13.48390709161754
1 45148U 20008T   23104.66980954  .00000112  00000-0  15820-3 0  9992
2 45148  87.9327 244.5949 0016215 319.2580  40.7355 13.48390766162594
1 45148U 20008T   23105.41187098  .00000114  00000-0  16235-3 0  9997
2 45148  87.9329 244.4407 0016165 316.9445  43.0439 13.48390951161888
1 45148U 20008T   23105.85710779  .00000111  00000-0  15733-3 0  9992
2 45148  87.9330 244.3483 0016138 315.5449  44.4404 13.48391039161944
1 45148U 20008T   23106.45075682  .00000113  00000-0  15980-3 0  9992
2 45148  87.9331 244.2250 0016103 313.6859  46.2955 13.48391194162025
1 45148U 20008T   23106.89599361  .00000110  00000-0  15563-3 0  9999
2 45148  87.9333 244.1325 0016076 312.2912  47.6874 13.48391273162082
1 45148U 20008T   23107.41543657  .00000109  00000-0  15323-3 0  9997
2 45148  87.9333 244.0247 0016038 310.6981  49.2774 13.48391374162157
1 45148U 20008T   23107.86067333  .00000108  00000-0  15130-3 0  9993
2 45148  87.9334 243.9322 0016013 309.2893  50.6836 13.48391467162214
1 45148U 20008T   23108.08329169  .00000110  00000-0  15514-3 0  9995
2 45148  87.9335 243.8860 0016000 308.5880  51.3836 13.48391527163053
1 45148U 20008T   23108.38011617  .00000108  00000-0  15232-3 0  9998
2 45148  87.9335 243.8244 0015986 307.6581  52.3117 13.48391602162280
1 45148U 20008T   23108.67694058  .00000109  00000-0  15348-3 0  9995
2 45148  87.9336 243.7627 0015975 306.6868  53.2813 13.48391669162321
1 45148U 20008T   23109.12217736  .00000110  00000-0  15468-3 0  9995
2 45148  87.9337 243.6702 0015952 305.2833  54.6823 13.48391748163197
1 45148U 20008T   23109.41900181  .00000104  00000-0  14500-3 0  9999
2 45148  87.9337 243.6086 0015941 304.3374  55.6266 13.48391794162428
1 45148U 20008T   23110.38368136  .00000105  00000-0  14671-3 0  9995
2 45148  87.9339 243.4084 0015892 301.3150  58.6443 13.48392001162556
1 45148U 20008T   23110.38368136  .00000105  00000-0  14671-3 0  9995
2 45148  87.9339 243.4084 0015892 301.3150  58.6443 13.48392001163366
1 45148U 20008T   23111.12574257  .00000101  00000-0  14116-3 0  9991
2 45148  87.9340 243.2543 0015858 298.9725  60.9833 13.48392091162656
1 45148U 20008T   23111.64518526  .00000103  00000-0  14358-3 0  9995
2 45148  87.9342 243.1465 0015851 297.2731  62.6803 13.48392204163532
1 45148U 20008T   23111.79359746  .00000110  00000-0  15436-3 0  9994
2 45148  87.9342 243.1157 0015847 296.7930  63.1598 13.48392279162741
1 45148U 20008T   23112.31304027  .00000108  00000-0  15254-3 0  9990
2 45148  87.9343 243.0078 0015835 295.1267  64.8239 13.48392358162812
1 45148U 20008T   23112.46145250  .00000101  00000-0  14087-3 0  9993
2 45148  87.9343 242.9771 0015837 294.6502  65.2998 13.48392345162833
1 45148U 20008T   23113.35192589  .00000106  00000-0  14896-3 0  9992
2 45148  87.9344 242.7922 0015806 291.8122  68.1345 13.48392510162958
1 45148U 20008T   23113.35192589  .00000106  00000-0  14896-3 0  9992
2 45148  87.9344 242.7922 0015806 291.8122  68.1345 13.48392510163768
1 45148U 20008T   23113.42613198  .00000113  00000-0  15960-3 0  9995
2 45148  87.9345 242.7768 0015803 291.5698  68.3766 13.48392558162961
1 45148U 20008T   23114.31660489  .00000194  00000-0  28998-3 0  9993
2 45148  87.9347 242.5919 0015780 288.7161  71.2275 13.48393247163084
1 45148U 20008T   23115.42969688  .00000112  00000-0  15911-3 0  9990
2 45148  87.9349 242.3610 0015743 285.1788  74.7619 13.48392915163235
1 45148U 20008T   23116.39437622  .00000110  00000-0  15558-3 0  9990
2 45148  87.9351 242.1608 0015714 282.0961  77.8427 13.48393084163363
1 45148U 20008T   23117.43326145  .00000110  00000-0  15524-3 0  9996
2 45148  87.9353 241.9452 0015711 278.7264  81.2106 13.48393333163500
1 45148U 20008T   23117.43326145  .00000110  00000-0  15524-3 0  9996
2 45148  87.9353 241.9452 0015711 278.7264  81.2106 13.48393333164310
1 45148U 20008T   23118.62055880  .00000106  00000-0  14909-3 0  9994
2 45148  87.9354 241.6988 0015700 274.8970  85.0387 13.48393575163669
1 45148U 20008T   23118.62055880  .00000106  00000-0  14909-3 0  9994
2 45148  87.9354 241.6988 0015700 274.8970  85.0387 13.48393575164479
1 45148U 20008T   23119.36261962  .00000100  00000-0  13926-3 0  9998
2 45148  87.9355 241.5449 0015695 272.4981  87.4371 13.48393739163762
1 45148U 20008T   23119.73365001  .00000101  00000-0  14041-3 0  9998
2 45148  87.9355 241.4679 0015689 271.2963  88.6388 13.48393830164625
1 45148U 20008T   23120.40150475  .00000091  00000-0  12410-3 0  9997
2 45148  87.9357 241.3294 0015687 269.1409  90.7943 13.48393917163905
1 45148U 20008T   23120.77253517  .00000089  00000-0  12119-3 0  9991
2 45148  87.9357 241.2524 0015688 267.9372  91.9980 13.48393968164761
1 45148U 20008T   23121.36618379  .00000088  00000-0  11916-3 0  9991
2 45148  87.9357 241.1293 0015699 266.0205  93.9150 13.48394080164037
1 45148U 20008T   23121.81142027  .00000087  00000-0  11805-3 0  9999
2 45148  87.9358 241.0370 0015706 264.5808  95.3549 13.48394158164094
1 45148U 20008T   23121.81142027  .00000087  00000-0  11805-3 0  9999
2 45148  87.9358 241.0370 0015706 264.5808  95.3549 13.48394158164904
1 45148U 20008T   23122.62768709  .00000085  00000-0  11466-3 0  9991
2 45148  87.9359 240.8676 0015730 261.9391  97.9974 13.48394291164207
1 45148U 20008T   23122.85030530  .00000087  00000-0  11851-3 0  9990
2 45148  87.9359 240.8215 0015734 261.2173  98.7194 13.48394357164230
1 45148U 20008T   23123.07292354  .00000089  00000-0  12105-3 0  9994
2 45148  87.9360 240.7753 0015737 260.4976  99.4394 13.48394388165070
1 45148U 20008T   23123.36974789  .00000088  00000-0  11939-3 0  9998
2 45148  87.9360 240.7137 0015742 259.5499 100.3877 13.48394437164309
1 45148U 20008T   23123.88919043  .00000086  00000-0  11627-3 0  9999
2 45148  87.9360 240.6060 0015758 257.8804 102.0579 13.48394510164378
1 45148U 20008T   23124.40863296  .00000087  00000-0  11753-3 0  9997
2 45148  87.9361 240.4983 0015779 256.2043 103.7351 13.48394606164442
1 45148U 20008T   23124.40863296  .00000087  00000-0  11753-3 0  9997
2 45148  87.9361 240.4983 0015779 256.2043 103.7351 13.48394606165252
1 45148U 20008T   23124.85386942  .00000092  00000-0  12643-3 0  9999
2 45148  87.9362 240.4060 0015795 254.7799 105.1603 13.48394704164500
1 45148U 20008T   23125.81854837  .00000105  00000-0  14716-3 0  9997
2 45148  87.9363 240.2059 0015833 251.6851 108.2576 13.48394918165449
1 45148U 20008T   23126.33799082  .00000121  00000-0  17270-3 0  9991
2 45148  87.9363 240.0982 0015866 250.0282 109.9158 13.48395101164706
1 45148U 20008T   23126.85743326  .00000128  00000-0  18346-3 0  9990
2 45148  87.9364 239.9905 0015892 248.3766 111.5691 13.48395239165585
